KNACKSAT-2              
1 67683U 98067XZ  26162.71234266  .00046941  00000+0  58268-3 0  9993
2 67683  51.6308 322.0071 0009845 191.1847 168.8928 15.59478995 19427
GEOSCAN 3 (RS92S3)      
1 64893U 25155T   26163.82619529  .00017964  00000+0  52626-3 0  9998
2 64893  97.4529 133.6524 0006091 174.1726 185.9589 15.35256527 80189
INNOSAT 3 (RS92S0)      
1 64894U 25155U   26163.83990734  .00039723  00000+0  88341-3 0  9990
2 64894  97.4476 135.2323 0005799 161.7171 198.4286 15.43536494 80294
