OBJECT_NAME,OBJECT_ID,EPOCH,MEAN_MOTION,ECCENTRICITY,INCLINATION,RA_OF_ASC_NODE,ARG_OF_PERICENTER,MEAN_ANOMALY,EPHEMERIS_TYPE,CLASSIFICATION_TYPE,NORAD_CAT_ID,ELEMENT_SET_NO,REV_AT_EPOCH,BSTAR,MEAN_MOTION_DOT,MEAN_MOTION_DDOT
GEOSCAN 3 (RS92S3),2025-155T,2026-06-12T19:49:43.273056,15.35256527,.0006091,97.4529,133.6524,174.1726,185.9589,0,U,64893,999,8018,.52626E-3,.17964E-3,0
INNOSAT 3 (RS92S0),2025-155U,2026-06-12T20:09:27.994176,15.43536494,.0005799,97.4476,135.2323,161.7171,198.4286,0,U,64894,999,8029,.88341E-3,.39723E-3,0
KNACKSAT-2,1998-067XZ,2026-06-11T17:05:46.405824,15.59478995,.00098455,51.6308,322.0071,191.1847,168.8928,0,U,67683,999,1942,.58268258E-3,.46941E-3,0
